{"type": "FeatureCollection", "features": [{"type": "Feature", "properties": {"id": "SS-ROM-0213", "nome": "Via Flaminia (tratto Tor di Quinto)", "quartiere": "Tor di Quinto", "classificazione": "rosso", "score": 4, "note": "traffico veloce quasi autostrada marciapiede stretto e discontinuo - segnalazione @metaiyo", "ciclabile": "no", "n_corsie": "4", "senso_unico": "no", "n_testimonianze": "1", "municipio": "XV"}, "geometry": {"type": "MultiLineString", "coordinates": [[[12.4847602, 41.9517512], [12.4847559, 41.9514631], [12.4847472, 41.9512613], [12.4847386, 41.9511409]], [[12.4931315, 42.0047829], [12.4930945, 42.0048326], [12.4930628, 42.0048831], [12.4930308, 42.0049326], [12.4929965, 42.0049973], [12.4929638, 42.0050734], [12.4929038, 42.0052113], [12.4927082, 42.0056483], [12.4925922, 42.0059068]], [[12.4738533, 41.9168076], [12.4738136, 41.9168951], [12.4737181, 41.9171188], [12.4735804, 41.9174443], [12.4733163, 41.9180946], [12.4732406, 41.9182683], [12.4732232, 41.9183118], [12.4730311, 41.9187835], [12.4730259, 41.9187996], [12.4730142, 41.9188221], [12.4729925, 41.9188646]], [[12.4884927, 42.0131125], [12.4893894, 42.0114745], [12.4902621, 42.0097802]], [[12.4921685, 42.0067654], [12.4920199, 42.0070775], [12.4918064, 42.0075257], [12.4915634, 42.0080408]], [[12.4886196, 42.0131361], [12.4880176, 42.014245], [12.4879458, 42.0143938], [12.4878823, 42.0145648], [12.4878199, 42.0147477]], [[12.4876721, 42.0147243], [12.4877873, 42.0144378], [12.4878452, 42.0143071], [12.4878985, 42.0142038], [12.4884927, 42.0131125]], [[12.4875005, 42.0164824], [12.4875165, 42.016761], [12.4875291, 42.0169156], [12.4876045, 42.0174335], [12.4878015, 42.0183936]], [[12.4877507, 42.020756], [12.4878277, 42.0204052], [12.4878709, 42.019925], [12.4878593, 42.0194295], [12.4878461, 42.0192529], [12.4877953, 42.0189122], [12.4874918, 42.0174654], [12.4874035, 42.016927], [12.4873849, 42.016744], [12.4873746, 42.0164719]], [[12.4862633, 41.9509935], [12.4860644, 41.9511753]], [[12.4662421, 41.9374648], [12.4663888, 41.9375211], [12.466445, 41.9375433], [12.466485, 41.9375585], [12.4667127, 41.9376394], [12.4669609, 41.9377206], [12.4670523, 41.9377474], [12.4671667, 41.9377782], [12.4672759, 41.9378046], [12.4673432, 41.9378207], [12.4674192, 41.9378371], [12.4677799, 41.9379143], [12.4678774, 41.9379402], [12.4679466, 41.9379613], [12.4680061, 41.9379804], [12.4680414, 41.9379934], [12.468093, 41.9380157], [12.4681474, 41.9380424], [12.4681965, 41.9380678], [12.4682452, 41.9380938], [12.4682505, 41.9380968], [12.4682912, 41.9381198], [12.468318, 41.9381374], [12.4683414, 41.9381538], [12.468374, 41.9381785], [12.4684032, 41.9382032], [12.4684272, 41.9382253], [12.4684477, 41.9382451], [12.4684826, 41.9382788], [12.4685055, 41.9383033], [12.4685275, 41.9383279], [12.4685496, 41.9383544], [12.4685668, 41.9383763], [12.4685967, 41.9384186], [12.4686206, 41.9384545], [12.4688856, 41.9389267]], [[12.4712317, 41.9417604], [12.4711098, 41.9417471]], [[12.4812146, 41.9510229], [12.4809979, 41.9510005], [12.480863, 41.9509872], [12.4807282, 41.950974], [12.4806661, 41.9509666], [12.4805736, 41.9509557], [12.480515, 41.9509479], [12.4804748, 41.9509412], [12.4804249, 41.9509313], [12.4803728, 41.9509201], [12.4803207, 41.9509064], [12.4802665, 41.9508913], [12.480196, 41.9508707], [12.4801233, 41.9508468], [12.4800709, 41.9508285], [12.4800288, 41.950812], [12.4799921, 41.9507953], [12.4799584, 41.9507796], [12.4799065, 41.950755], [12.4798647, 41.9507329], [12.4798201, 41.950706], [12.4797745, 41.950677], [12.4797264, 41.9506441], [12.4796929, 41.950619], [12.4796664, 41.9505963], [12.479633, 41.9505672], [12.4796149, 41.950549], [12.4795958, 41.9505294], [12.4795737, 41.9505051], [12.4795541, 41.950484], [12.4795301, 41.9504562], [12.4794999, 41.9504203], [12.4793489, 41.9502363], [12.4792203, 41.9500751], [12.4791545, 41.9499893], [12.4787236, 41.9494624], [12.4784932, 41.9491686], [12.4779297, 41.9484829], [12.4778874, 41.9484331], [12.4778391, 41.9483803], [12.477767, 41.9483133], [12.4776815, 41.9482479], [12.477608, 41.9481945], [12.4775512, 41.9481604], [12.4774944, 41.9481263], [12.4773496, 41.9480495], [12.477272, 41.9480134], [12.4771962, 41.9479813], [12.4770764, 41.9479407], [12.4769891, 41.9479149], [12.4769107, 41.9478945], [12.4767912, 41.9478688], [12.4767155, 41.9478569], [12.4766453, 41.9478465], [12.4765645, 41.9478373], [12.4764188, 41.9478244], [12.4763366, 41.9478198], [12.4759926, 41.9478031], [12.4758845, 41.9477994], [12.475716, 41.9477933], [12.4756034, 41.9477899], [12.4755512, 41.947786], [12.4755024, 41.9477826], [12.475309, 41.9477655], [12.4752415, 41.9477577], [12.4751765, 41.9477486], [12.4751272, 41.9477405], [12.4750686, 41.947731], [12.4750227, 41.9477213], [12.474974, 41.94771], [12.4749336, 41.9476998], [12.4748848, 41.9476852], [12.4748401, 41.9476686], [12.4747937, 41.947647], [12.4747493, 41.947625], [12.474709, 41.9476029], [12.4746561, 41.947572], [12.474631, 41.9475565], [12.4746023, 41.9475361], [12.4745669, 41.9475069], [12.4745286, 41.9474734], [12.4744666, 41.9474203], [12.4743789, 41.9473389], [12.47429, 41.947256], [12.4741146, 41.9470786], [12.4738945, 41.9468389], [12.4738592, 41.9468016], [12.4738302, 41.9467655], [12.4737932, 41.9467173], [12.4737642, 41.9466731], [12.4733438, 41.9460983], [12.4732542, 41.9459677], [12.4732198, 41.9459161], [12.4731245, 41.9457749], [12.4728189, 41.9453278], [12.4727832, 41.9452788], [12.4726522, 41.945095], [12.4726066, 41.9450261], [12.4725233, 41.9449073], [12.472446, 41.9448004], [12.4723273, 41.9446242], [12.4722713, 41.9445464], [12.4722162, 41.9444645], [12.4721799, 41.9444039], [12.472148, 41.9443458], [12.4721239, 41.9442947], [12.4721032, 41.9442422], [12.4720566, 41.9441222], [12.4720276, 41.9440318], [12.4720128, 41.943981], [12.4719961, 41.943919], [12.471984, 41.9438668], [12.4719651, 41.9437568], [12.4719493, 41.9435788], [12.4719471, 41.9433547], [12.4719468, 41.9431174], [12.4719483, 41.9429732], [12.4719614, 41.9424689], [12.4719628, 41.9423398], [12.4719646, 41.9422437]], [[12.4838336, 41.9512736], [12.4836632, 41.951263], [12.4836031, 41.9512599], [12.483529, 41.9512579], [12.4834653, 41.951258], [12.4833989, 41.951262], [12.4833338, 41.9512681], [12.4832687, 41.9512781], [12.4829825, 41.9513273]], [[12.4812146, 41.9510229], [12.4816453, 41.9510212], [12.4824428, 41.9509938], [12.4826006, 41.9509948], [12.4827698, 41.9510068]], [[12.4860644, 41.9511753], [12.4859987, 41.9512344], [12.4859418, 41.9512802], [12.4859125, 41.9512985], [12.485878, 41.9513169], [12.4858421, 41.9513327], [12.4857961, 41.95135]], [[12.4683698, 41.9300952], [12.4683794, 41.9300889], [12.4685044, 41.9300079], [12.4685449, 41.9299092], [12.4689541, 41.9289279]], [[12.4690963, 41.9285935], [12.4691447, 41.9284793], [12.4691721, 41.928409], [12.4692342, 41.9282554], [12.4698025, 41.9268405], [12.4701764, 41.9259153], [12.4702006, 41.9258554], [12.4702303, 41.9257819], [12.4702689, 41.9256897], [12.4705597, 41.9249909], [12.4708021, 41.9243957], [12.4710356, 41.9238144], [12.4710602, 41.923751]], [[12.4742071, 41.9150918], [12.4743293, 41.9151159], [12.4744002, 41.9151299]], [[12.489431, 41.964498], [12.4889335, 41.9640769], [12.4887943, 41.9639546], [12.4887421, 41.9639085]], [[12.4848387, 41.9523352], [12.4849242, 41.9523444], [12.4860604, 41.952467], [12.4860866, 41.9524741], [12.4861101, 41.9524832], [12.4861309, 41.9524954], [12.4861491, 41.9525115], [12.4861737, 41.9525534], [12.4861903, 41.9525973], [12.4862042, 41.9526374], [12.4862234, 41.9526776], [12.4862484, 41.9527054], [12.4862815, 41.9527252], [12.4863132, 41.952741], [12.4863557, 41.9527549], [12.4863971, 41.9527666], [12.4864465, 41.9527743], [12.4865033, 41.952779], [12.4865668, 41.9527798], [12.4882012, 41.9526669], [12.4888368, 41.9526231]], [[12.4850465, 41.95733], [12.4849426, 41.9572357], [12.4848777, 41.9571572], [12.4848312, 41.9571009], [12.4847878, 41.9570297], [12.4847549, 41.956938], [12.4847346, 41.9567603]], [[12.4847346, 41.9567603], [12.4847319, 41.9567017], [12.4847293, 41.9564697], [12.4846955, 41.9558607]], [[12.493633, 41.9832269], [12.4936306, 41.9832977], [12.4936247, 41.9833752], [12.4936152, 41.9834414]], [[12.4934663, 41.9870904], [12.4933427, 41.9870132], [12.4932519, 41.9869584]], [[12.4940369, 41.9856112], [12.4941231, 41.9860932], [12.4941357, 41.9862008], [12.4941437, 41.9863084], [12.4941466, 41.9864019], [12.494146, 41.986485]], [[12.494146, 41.986485], [12.4941062, 41.9867798], [12.4940928, 41.9869017]], [[12.4857961, 41.95135], [12.485757, 41.9513635], [12.485718, 41.951377], [12.4856707, 41.9513918], [12.4856174, 41.9514065], [12.4855134, 41.9514294], [12.4854169, 41.9514456], [12.4853561, 41.9514516], [12.4852971, 41.9514564], [12.4852077, 41.9514592], [12.4851151, 41.9514591], [12.4850608, 41.9514566], [12.4850066, 41.9514515], [12.4848102, 41.9514266], [12.4846513, 41.9514006], [12.4843717, 41.951357], [12.484098, 41.9513136], [12.483962, 41.9512924], [12.4838336, 41.9512736]], [[12.4926617, 41.9856121], [12.4926319, 41.9857546], [12.4926206, 41.9858962], [12.4926244, 41.985971], [12.4926362, 41.9860498], [12.492666, 41.9861541]], [[12.492666, 41.9861541], [12.492693, 41.9862205], [12.4927194, 41.9862853], [12.4927636, 41.9863712], [12.4928034, 41.9864336], [12.4928536, 41.9865008], [12.4929193, 41.9865807], [12.4929844, 41.986641], [12.4930919, 41.9867289], [12.4931766, 41.9867973], [12.4932711, 41.9868591], [12.4935148, 41.9870029], [12.4936494, 41.9870802]], [[12.492531, 41.9856068], [12.4925717, 41.9854932], [12.4926098, 41.9853976], [12.4926858, 41.9852238], [12.4928506, 41.9848879], [12.4930615, 41.9844669], [12.4931329, 41.9843208]], [[12.4925236, 41.9861446], [12.4925088, 41.9860557], [12.4924987, 41.9859581], [12.4924949, 41.9858183], [12.4925094, 41.9857132], [12.492531, 41.9856068]], [[12.4887421, 41.9639085], [12.4883535, 41.9634407], [12.4882527, 41.9633313], [12.4881019, 41.9631735], [12.4879225, 41.9629895], [12.4877466, 41.9628198], [12.4876544, 41.9627325], [12.4874669, 41.9625604], [12.48737, 41.9624709], [12.4873309, 41.9624298], [12.4864686, 41.9616344], [12.4862754, 41.9614737], [12.4861152, 41.9613653], [12.4860517, 41.9613084], [12.4859909, 41.9612495], [12.485925, 41.9611637], [12.4858726, 41.9610719], [12.4857447, 41.9606499]], [[12.493262, 41.9840732], [12.4933513, 41.9838914], [12.4934014, 41.9837891], [12.4934339, 41.9837163], [12.4934536, 41.9836634], [12.4934686, 41.9836141], [12.4934901, 41.9835286], [12.4935021, 41.9834336], [12.4935138, 41.9833374], [12.4935214, 41.9832136], [12.4935213, 41.9831433], [12.4935188, 41.9830695], [12.4935165, 41.982952], [12.4935048, 41.9827997], [12.4934697, 41.9825213], [12.4933934, 41.9818364], [12.4933781, 41.9816093], [12.4933686, 41.9813803], [12.4933712, 41.9811562], [12.4933769, 41.9809389], [12.4934089, 41.9806037], [12.4934315, 41.980424], [12.4934572, 41.9802603], [12.4934845, 41.9801009], [12.493518, 41.9799347], [12.4935819, 41.9796182], [12.4936149, 41.9794243], [12.4936316, 41.9793325], [12.4936463, 41.9792499], [12.4936603, 41.9791524], [12.4936682, 41.9790687], [12.4936751, 41.9789868], [12.4936792, 41.9788918], [12.4936835, 41.9787348]], [[12.4865844, 41.9591714], [12.4863908, 41.9587545], [12.4863491, 41.9586777], [12.4862965, 41.9585962], [12.4862218, 41.9584791], [12.4861438, 41.958371], [12.4860784, 41.9582854], [12.4858777, 41.9580529]], [[12.4666121, 41.934315], [12.4666675, 41.9341971], [12.4667182, 41.9340859], [12.4669005, 41.9336495], [12.4669268, 41.93358], [12.466994, 41.9334166], [12.4670656, 41.9332513], [12.4670881, 41.9331925], [12.4671075, 41.9331433]], [[12.4703121, 41.9409751], [12.4704196, 41.9410254], [12.4704721, 41.9410517], [12.4705077, 41.9410714], [12.4705386, 41.941092], [12.4705615, 41.9411099], [12.4705916, 41.9411335], [12.470612, 41.9411478], [12.470628, 41.9411543], [12.4706381, 41.9411574], [12.4706463, 41.9411593], [12.4706552, 41.9411603], [12.4706637, 41.9411602], [12.4706722, 41.9411592], [12.4706818, 41.9411576], [12.4706913, 41.9411551], [12.4706992, 41.9411518], [12.4707064, 41.941147], [12.4707151, 41.9411381], [12.4707627, 41.9410843]], [[12.4860644, 41.9511753], [12.4860848, 41.9510787], [12.4860738, 41.9510011], [12.4860546, 41.9509408]], [[12.4848275, 41.9509369], [12.4848521, 41.9514948], [12.4848613, 41.9517756], [12.4848583, 41.9518602], [12.4848387, 41.9523352], [12.4848172, 41.9526039]], [[12.4954446, 42.0023091], [12.4954203, 42.0023559], [12.4954014, 42.0024098], [12.4953805, 42.0024592], [12.4953543, 42.0025133], [12.4953214, 42.0025742], [12.4952253, 42.0027401], [12.4951513, 42.0028708], [12.4951091, 42.0029333], [12.4950669, 42.0029917], [12.4950388, 42.0030306], [12.494992, 42.0030888]], [[12.4949237, 42.0027893], [12.4949636, 42.0027469], [12.4950175, 42.0026848], [12.4950435, 42.002653], [12.4951716, 42.0025722], [12.4952266, 42.0024851], [12.4953053, 42.0023503], [12.4953493, 42.0022645], [12.4953876, 42.0021874], [12.4955476, 42.0018629]], [[12.4878199, 42.0147477], [12.4876223, 42.0152505], [12.4875769, 42.015463], [12.4875302, 42.0157675], [12.4875005, 42.0164824]], [[12.4948445, 42.0030443], [12.494776, 42.0031036], [12.493543, 42.0041219], [12.493438, 42.0042114], [12.4933109, 42.0043265], [12.4932407, 42.0043959], [12.493177, 42.0044612], [12.4930865, 42.0045614], [12.4930443, 42.0046109], [12.4929993, 42.0046662], [12.4929054, 42.0047854], [12.4928392, 42.0048729], [12.4927762, 42.0049588], [12.4927256, 42.0050357], [12.4926782, 42.005111], [12.4926394, 42.0051765], [12.4923334, 42.0057198], [12.4916303, 42.0073162], [12.4911748, 42.0082489], [12.4894876, 42.0114789], [12.4886196, 42.0131361]], [[12.494992, 42.0030888], [12.494708, 42.0033894], [12.4946542, 42.0034435], [12.4945895, 42.0035064], [12.4945184, 42.0035732], [12.494469, 42.0036185], [12.4944131, 42.0036678], [12.4943611, 42.0037119], [12.4936427, 42.0042919], [12.4935079, 42.0044055], [12.493392, 42.0045119], [12.4932762, 42.0046231], [12.4932229, 42.0046784], [12.4931816, 42.0047226], [12.4931315, 42.0047829]], [[12.4873746, 42.0164719], [12.4873777, 42.0157523], [12.4874058, 42.0155519], [12.4874796, 42.0152424], [12.4876721, 42.0147243]], [[12.488467, 42.0189192], [12.4879268, 42.0205631], [12.487871, 42.0206646]], [[12.4964323, 41.9986216], [12.4964242, 41.9986923]], [[12.496498, 41.9979884], [12.4964595, 41.99833]], [[12.4688856, 41.9389267], [12.4689742, 41.93909], [12.4690057, 41.9391427], [12.4690376, 41.9391892], [12.4690701, 41.9392319], [12.4690924, 41.939258], [12.4692107, 41.9393907], [12.4692472, 41.9394292], [12.4695377, 41.9397495], [12.4696588, 41.9398857], [12.4697798, 41.9400258], [12.4698823, 41.9401467], [12.4699525, 41.9402452], [12.469996, 41.9403211], [12.4700382, 41.9404025], [12.4700856, 41.9404994], [12.4701322, 41.9405991], [12.4701942, 41.9407314], [12.4703121, 41.9409751], [12.4703966, 41.941168]], [[12.4706476, 41.9417067], [12.4705497, 41.941693], [12.4705083, 41.941536], [12.4704733, 41.9413834], [12.4704652, 41.9413577], [12.470445, 41.9413008], [12.4703966, 41.941168]], [[12.4744323, 41.9154357], [12.4741531, 41.9160736], [12.4740411, 41.9163379]], [[12.4959139, 42.0007395], [12.4960081, 42.0006175], [12.4960267, 42.0005906], [12.4960422, 42.000566], [12.496071, 42.0005154], [12.4961098, 42.0004487], [12.4961364, 42.0003925], [12.4961637, 42.0003203]], [[12.4708435, 41.9414827], [12.4708659, 41.9415352], [12.470902, 41.9415955], [12.4709328, 41.9416317], [12.4709397, 41.9416383], [12.4709725, 41.9416661], [12.4710053, 41.9416883], [12.4710353, 41.9417064], [12.4711098, 41.9417471]], [[12.4711098, 41.9417471], [12.4710532, 41.941745], [12.4710032, 41.9417431], [12.4709644, 41.9417404], [12.4709078, 41.9417367], [12.4707919, 41.9417251], [12.4706476, 41.9417067]], [[12.4719646, 41.9422437], [12.4719614, 41.9422103], [12.4719539, 41.9421608], [12.4719471, 41.9421225], [12.4719411, 41.9420984], [12.4719315, 41.942073], [12.4719139, 41.942032], [12.4718906, 41.9419899], [12.4718679, 41.9419583], [12.471847, 41.9419345], [12.4718125, 41.9419055], [12.4717859, 41.9418855], [12.4717586, 41.9418676], [12.4717339, 41.9418546], [12.4717062, 41.9418403], [12.4716757, 41.9418281], [12.4716422, 41.9418189], [12.4716048, 41.9418085], [12.471556, 41.9417989], [12.4714867, 41.9417867], [12.4714189, 41.941779], [12.4713302, 41.9417711], [12.4712317, 41.9417604]], [[12.4925922, 42.0059068], [12.4925662, 42.0059626], [12.4924144, 42.0062549], [12.4921685, 42.0067654]], [[12.4964242, 41.9986923], [12.4964354, 41.9987243], [12.496448, 41.9987527], [12.4964605, 41.9987753], [12.4964827, 41.9987994], [12.4965042, 41.9988144], [12.4965329, 41.9988266], [12.4965609, 41.9988334], [12.4965829, 41.9988376], [12.4966095, 41.9988386], [12.4966366, 41.9988355], [12.4966664, 41.998829], [12.4966835, 41.9988222], [12.4967045, 41.9988113], [12.4967262, 41.998797], [12.4967452, 41.9987784], [12.4967749, 41.9987386]], [[12.496498, 41.9979884], [12.4965383, 41.9977455], [12.4965612, 41.9975705], [12.4966135, 41.9971767], [12.4966257, 41.9970725], [12.4966295, 41.9970412], [12.4966332, 41.9970065], [12.4966372, 41.996963], [12.4966389, 41.9969109], [12.4966405, 41.9968491], [12.4966374, 41.9967718], [12.4966272, 41.9966944], [12.4966147, 41.9966032], [12.496578, 41.996426], [12.4965577, 41.9963389], [12.4965348, 41.9962598], [12.4965132, 41.9961956], [12.4964916, 41.9961414], [12.496373, 41.995895], [12.496257, 41.9956635], [12.4960461, 41.9952284], [12.4958372, 41.9948348], [12.4956297, 41.9944476], [12.4954509, 41.9941048], [12.4952736, 41.9937573], [12.4950759, 41.9933611], [12.4949796, 41.9931565], [12.4949361, 41.9930657], [12.4948925, 41.9929588], [12.4948427, 41.9928045], [12.4947959, 41.9926524], [12.494771, 41.9925494], [12.494746, 41.9924395], [12.4947115, 41.9921991], [12.4945959, 41.9913809], [12.4943709, 41.9895752], [12.4943434, 41.9893919]], [[12.4950447, 41.9990121], [12.4949539, 41.9990081], [12.4948653, 41.9990033], [12.4947926, 41.9989991], [12.4947215, 41.998994], [12.4946744, 41.9989886], [12.4946464, 41.9989848]], [[12.4936152, 41.9834414], [12.4936232, 41.9836264], [12.4936348, 41.9837276], [12.4936456, 41.9838161], [12.4936828, 41.9840349], [12.4937067, 41.9842005], [12.4937102, 41.9842641], [12.4937104, 41.9843056], [12.493709, 41.984354]], [[12.48428, 41.9536813], [12.4842979, 41.9536504], [12.4845126, 41.9532785], [12.4845563, 41.9532064], [12.4846058, 41.9531271], [12.4846603, 41.9530297], [12.4846962, 41.9529167], [12.4847588, 41.9518594], [12.4847611, 41.9518051], [12.4847602, 41.9517512]], [[12.4847331, 41.9536352], [12.4847258, 41.9539674], [12.4847336, 41.9542291], [12.4847358, 41.9546243], [12.4847363, 41.9546541], [12.484739, 41.954812], [12.4847874, 41.9555105], [12.4847995, 41.9557151], [12.4848084, 41.9558657]], [[12.4848167, 41.9506347], [12.4848275, 41.9509369]], [[12.4858777, 41.9580529], [12.4857204, 41.9578908], [12.4856562, 41.9578236], [12.4855558, 41.9577359], [12.4853769, 41.9575879], [12.4850465, 41.95733]], [[12.4955476, 42.0018629], [12.4956533, 42.0016555]], [[12.495656, 42.001891], [12.4954446, 42.0023091]], [[12.4958346, 42.0015483], [12.495656, 42.001891]], [[12.4956941, 42.0015837], [12.4959634, 42.0011094], [12.4962454, 42.0006159], [12.4964113, 42.0003179]], [[12.4878015, 42.0183936], [12.487914, 42.018942], [12.4879709, 42.0194816], [12.4879687, 42.0199929], [12.4879503, 42.0202042], [12.487912, 42.0204045], [12.487871, 42.0206646]], [[12.4846955, 41.9558607], [12.4846708, 41.9552749], [12.4846373, 41.9550482], [12.4846256, 41.9549929], [12.4846113, 41.9549342], [12.4845853, 41.9548545], [12.4845691, 41.9548086], [12.4843778, 41.9543289], [12.4842925, 41.9541325], [12.4842801, 41.9541024], [12.4842662, 41.9540661], [12.4842545, 41.9540335], [12.4842448, 41.9539899], [12.4842393, 41.9539443], [12.4842366, 41.9539068], [12.4842365, 41.9538695], [12.4842389, 41.9538381], [12.4842419, 41.953814], [12.4842462, 41.9537897], [12.4842521, 41.9537658], [12.4842606, 41.9537375], [12.48428, 41.9536813]], [[12.4723744, 41.9202468], [12.4727739, 41.9192231]], [[12.4727739, 41.9192231], [12.4728056, 41.9191719], [12.4728166, 41.9191526], [12.4728271, 41.9191357], [12.4728353, 41.9191213], [12.472843, 41.9191076], [12.4728512, 41.9190932], [12.4728687, 41.9190527], [12.4728834, 41.919024], [12.4729055, 41.9189842], [12.4729216, 41.9189624], [12.4729335, 41.9189469], [12.4729429, 41.9189355], [12.4729487, 41.9189285], [12.4729572, 41.9189173], [12.4729645, 41.9189069], [12.4729749, 41.9188941], [12.4729815, 41.9188845], [12.4729925, 41.9188646]], [[12.4744002, 41.9151299], [12.4744206, 41.9151272], [12.4744339, 41.9151239], [12.4744512, 41.9151157], [12.4744622, 41.9151078], [12.474473, 41.9150977], [12.4744775, 41.9150914], [12.4744841, 41.9150741], [12.4744997, 41.9150329], [12.4747141, 41.9144723], [12.4747556, 41.9143962], [12.4750213, 41.913755], [12.4750475, 41.913692], [12.4752717, 41.9131366], [12.4753317, 41.9129891], [12.4754916, 41.9126103]], [[12.482843, 41.9510155], [12.4828859, 41.9510351], [12.482935, 41.9510548], [12.4829824, 41.9510712], [12.4830344, 41.9510865], [12.4831395, 41.9511147], [12.483247, 41.9511423], [12.4833989, 41.9511786], [12.4837602, 41.9512612], [12.4838336, 41.9512736]], [[12.4706996, 41.9243644], [12.4708159, 41.9240751]], [[12.4689775, 41.9285672], [12.4690553, 41.9283818], [12.469116, 41.9282247], [12.4693537, 41.9276414], [12.4700755, 41.925892], [12.4701002, 41.9258344], [12.4701303, 41.9257593], [12.4701702, 41.9256682], [12.4703474, 41.9252337], [12.4704287, 41.9250398], [12.470458, 41.9249694], [12.4706996, 41.9243644]], [[12.4933439, 41.9770752], [12.4933211, 41.9769959], [12.4932441, 41.9767645], [12.4931812, 41.9765861], [12.4930687, 41.9762538], [12.4929014, 41.9757428], [12.4928237, 41.9755074], [12.4927426, 41.9752333], [12.4926376, 41.9747955], [12.4924568, 41.9738444], [12.492401, 41.9735578], [12.492273, 41.9728757], [12.4921553, 41.9721477], [12.4920952, 41.9718244], [12.4920274, 41.9714851], [12.4920092, 41.9713721], [12.4919886, 41.9712605], [12.4919781, 41.9711926], [12.4918377, 41.9706662], [12.4916973, 41.9701714], [12.4916708, 41.9700751], [12.4916373, 41.9699753], [12.4915041, 41.9695559], [12.4913717, 41.9691837], [12.4913629, 41.969162], [12.4910814, 41.9684868], [12.490954, 41.9681671], [12.4908323, 41.9678647], [12.4902852, 41.9665766]], [[12.492525, 41.9734598], [12.4926168, 41.973954], [12.4926578, 41.9741822], [12.4927064, 41.9744333], [12.4927963, 41.9748811], [12.4929146, 41.9753484], [12.4929945, 41.9756195], [12.4930744, 41.9758745], [12.4931827, 41.9761995], [12.4933139, 41.9765761], [12.4935005, 41.9771601], [12.493679, 41.9777487]], [[12.4829825, 41.9513273], [12.4829503, 41.9513298], [12.4829032, 41.9513334], [12.4828208, 41.951337], [12.4827016, 41.9513406]], [[12.4932818, 41.9842647], [12.4929308, 41.9849636], [12.4928216, 41.9851871], [12.4927059, 41.9854704]], [[12.4898671, 41.9652286], [12.490101, 41.9658125], [12.4904005, 41.9665175], [12.4906884, 41.9672225], [12.4910684, 41.9681562], [12.4914952, 41.969207], [12.4916967, 41.969747], [12.4918442, 41.9702637], [12.4919751, 41.9707144], [12.4920371, 41.9709384], [12.4920884, 41.9711624], [12.4922785, 41.9720979], [12.4924182, 41.9729238], [12.492525, 41.9734598]], [[12.493679, 41.9777487], [12.4937308, 41.9779499], [12.4937544, 41.978073], [12.4937784, 41.9782028], [12.4937912, 41.9783115], [12.4938096, 41.978505], [12.4938198, 41.9786579], [12.4938201, 41.9787799], [12.4938134, 41.978907], [12.4937874, 41.9791025], [12.4937568, 41.9792849], [12.4936146, 41.9800458], [12.4935452, 41.9804523], [12.4934922, 41.9809059], [12.4934825, 41.9811586], [12.4934802, 41.9812828], [12.4934814, 41.9814136], [12.4934895, 41.9816038], [12.4935099, 41.981856], [12.4935829, 41.9825579], [12.4936308, 41.9830354], [12.4936338, 41.9831373], [12.493633, 41.9832269]], [[12.4902852, 41.9665766], [12.4897735, 41.9653029], [12.489431, 41.964498]], [[12.4936835, 41.9787348], [12.4936637, 41.9784511], [12.4936468, 41.9782542], [12.4936272, 41.9781112], [12.4935843, 41.977904], [12.4935168, 41.9776379]], [[12.4684121, 41.9299669], [12.4684483, 41.9298841], [12.4686944, 41.9292586], [12.4689179, 41.928706], [12.4689276, 41.9286848], [12.4689775, 41.9285672]], [[12.4954446, 42.0023091], [12.4951326, 42.0027343], [12.4950001, 42.0028849], [12.4949298, 42.0029598], [12.4948445, 42.0030443]], [[12.4902621, 42.0097802], [12.4910439, 42.008231], [12.4920616, 42.0060004], [12.4922152, 42.0056762], [12.4923519, 42.0054248], [12.4924933, 42.0051757], [12.4925388, 42.005098], [12.4925993, 42.0050007], [12.4926529, 42.0049213], [12.4927154, 42.0048347], [12.4927821, 42.0047482], [12.4928531, 42.0046605], [12.4929176, 42.0045826], [12.4929831, 42.0045053], [12.4930639, 42.0044149], [12.4931415, 42.0043316], [12.4932196, 42.0042554], [12.4933183, 42.0041643], [12.4934043, 42.0040895], [12.4948018, 42.0029003], [12.4948643, 42.0028448], [12.4949237, 42.0027893]], [[12.4932519, 41.9869584], [12.4930129, 41.9868064], [12.4928924, 41.9867044], [12.4928439, 41.9866602], [12.4927926, 41.9866118], [12.4927466, 41.9865575], [12.4927084, 41.9865092], [12.492663, 41.9864412], [12.4926136, 41.9863591], [12.4925721, 41.9862762], [12.4925236, 41.9861446]], [[12.4904881, 42.0117104], [12.4904072, 42.0120223], [12.4902049, 42.0129341], [12.4899611, 42.0138786], [12.4898085, 42.0145343], [12.4896345, 42.0152168], [12.4895685, 42.0154688], [12.4893013, 42.0164895], [12.4889915, 42.0173683], [12.4886854, 42.0182635], [12.488467, 42.0189192]], [[12.4915634, 42.0080408], [12.4911891, 42.0088787], [12.491058, 42.009398], [12.4905744, 42.0113788]], [[12.4905744, 42.0113788], [12.4905515, 42.0114781], [12.4905086, 42.0116477], [12.4904881, 42.0117104]], [[12.4964854, 42.0004021], [12.4962541, 42.0008135], [12.4958346, 42.0015483]], [[12.4931329, 41.9843208], [12.493165, 41.9842576], [12.493262, 41.9840732]], [[12.4936152, 41.9834414], [12.4935804, 41.9835911], [12.4935395, 41.9837241], [12.4935069, 41.9838092], [12.4934672, 41.9838996], [12.4933556, 41.9841177], [12.4933269, 41.984174], [12.4933211, 41.9841854], [12.4932818, 41.9842647]], [[12.4941534, 41.9876188], [12.4942168, 41.9881785], [12.4943399, 41.9893274]], [[12.4961336, 41.9990395], [12.4961001, 41.9990389]], [[12.4946464, 41.9989848], [12.4945997, 41.9989822], [12.4945628, 41.9989788], [12.4945075, 41.9989702], [12.4944482, 41.9989568], [12.4944005, 41.9989433], [12.4943687, 41.9989334], [12.4943338, 41.998922], [12.4943011, 41.9989075], [12.4942575, 41.9988868], [12.494206, 41.9988549], [12.4941817, 41.9988372], [12.4941618, 41.9988221], [12.4941292, 41.9987946], [12.4940928, 41.9987523]], [[12.4940928, 41.9869017], [12.4940934, 41.987047]], [[12.496338, 41.9995432], [12.4963582, 41.9993978], [12.49636, 41.9993595], [12.4963588, 41.9993304], [12.4963508, 41.9992832], [12.4963397, 41.9992473], [12.4963166, 41.9991962], [12.4962975, 41.9991663], [12.4962774, 41.9991384], [12.4962543, 41.9991144], [12.4962266, 41.9990938], [12.4961949, 41.9990747], [12.4961336, 41.9990395]], [[12.4961637, 42.0003203], [12.4961869, 42.0002512], [12.4962083, 42.0001779], [12.4962253, 42.0001175], [12.496239, 42.0000592], [12.4962504, 42.0000134], [12.4962591, 41.9999752], [12.4962682, 41.9999353], [12.496293, 41.9998115], [12.496338, 41.9995432]], [[12.493709, 41.984354], [12.4937175, 41.9843842], [12.49375, 41.9844969], [12.4938627, 41.9848628], [12.4939336, 41.9850911], [12.4939698, 41.9852236], [12.4939991, 41.9853491], [12.4940215, 41.9854927], [12.4940369, 41.9856112]], [[12.4848818, 41.9564502], [12.4849375, 41.9566219], [12.4849675, 41.9567075], [12.4849957, 41.9567759], [12.4850242, 41.9568306], [12.4850544, 41.9568813], [12.4850919, 41.956934], [12.4851294, 41.9569776], [12.4851976, 41.9570472], [12.4854109, 41.9572537], [12.4855588, 41.9574183], [12.4856435, 41.9575284]], [[12.4708159, 41.9240751], [12.4709181, 41.9238241], [12.4709315, 41.9237905], [12.4709575, 41.9237306]], [[12.4758907, 41.9121133], [12.4757186, 41.9125255], [12.4756919, 41.9125894], [12.4756569, 41.9125815], [12.4756247, 41.9125742], [12.4756139, 41.9125718], [12.4755584, 41.9125592], [12.4755452, 41.9125562], [12.4755184, 41.9125501], [12.4754737, 41.91254], [12.4756662, 41.9120697], [12.4757056, 41.9120774], [12.4757275, 41.9120816], [12.4757808, 41.9120924], [12.4758615, 41.912108], [12.4758907, 41.9121133]], [[12.4941267, 41.9873046], [12.4941534, 41.9876188]], [[12.4940934, 41.987047], [12.4941267, 41.9873046]], [[12.4894728, 41.9642802], [12.489554, 41.9644828], [12.4898671, 41.9652286]], [[12.4748813, 41.9144691], [12.4748963, 41.9144281], [12.4751518, 41.9137848], [12.4754127, 41.9131693], [12.4756291, 41.9126483], [12.4756569, 41.9125815], [12.4756714, 41.9125466], [12.4758615, 41.912108], [12.4758749, 41.9120845], [12.4759157, 41.912034], [12.4759475, 41.911991]], [[12.4827698, 41.9510068], [12.482843, 41.9510155]], [[12.4848084, 41.9558657], [12.4848499, 41.9561814], [12.4848818, 41.9564502]], [[12.4848172, 41.9526039], [12.4848225, 41.9527592], [12.4848223, 41.952821], [12.4848147, 41.9529012], [12.4848032, 41.9529787], [12.4847859, 41.9530547], [12.4847705, 41.9531225], [12.4847546, 41.9531819], [12.4847426, 41.9532468], [12.4847405, 41.9533441], [12.4847382, 41.9535152], [12.4847331, 41.9536352]], [[12.4827016, 41.9513406], [12.482673, 41.9513426], [12.4826459, 41.9513435], [12.4826168, 41.9513427], [12.4825878, 41.9513407], [12.4825476, 41.9513347], [12.4824966, 41.9513264], [12.4824533, 41.9513184], [12.4824077, 41.9513088], [12.4823389, 41.9512936], [12.4822652, 41.9512742], [12.4818449, 41.9511567], [12.4817908, 41.9511428], [12.4817296, 41.9511282], [12.4816561, 41.9511125], [12.4815781, 41.9510966], [12.4814565, 41.9510725], [12.4812146, 41.9510229]], [[12.4673674, 41.9337375], [12.467371, 41.9336127], [12.4673709, 41.9335498], [12.4673688, 41.9334816], [12.4673686, 41.9334759], [12.4673642, 41.9333844], [12.4673601, 41.933329], [12.467338, 41.9330244], [12.4673309, 41.932941], [12.4673285, 41.9329038], [12.4673285, 41.9328762], [12.4673291, 41.9328541], [12.4673334, 41.9328085], [12.4673371, 41.9327782], [12.4673431, 41.9327471], [12.4673493, 41.9327255], [12.4675021, 41.9323013], [12.4676574, 41.9318868], [12.4676947, 41.9318066], [12.4678337, 41.9314779], [12.4682685, 41.9303607], [12.4683137, 41.9302475], [12.4683698, 41.9300952], [12.4683736, 41.9300818], [12.4684121, 41.9299669]], [[12.4710027, 41.9236188], [12.4713968, 41.922683], [12.4716217, 41.9221209], [12.4718516, 41.9215406], [12.4720431, 41.9210506], [12.4720617, 41.9210073], [12.4720905, 41.9209368], [12.4721125, 41.9208839], [12.4722703, 41.9204958], [12.4722838, 41.9204627], [12.4723744, 41.9202468]], [[12.4935168, 41.9776379], [12.4934648, 41.9774656], [12.4934195, 41.9773151]], [[12.4934195, 41.9773151], [12.4933439, 41.9770752]], [[12.4740411, 41.9163379], [12.4740337, 41.9163938], [12.4740284, 41.9164233], [12.4740221, 41.916444], [12.4739116, 41.9167018], [12.4738976, 41.9167272], [12.4738533, 41.9168076]], [[12.4946464, 41.9989848], [12.4946157, 41.9989688], [12.4945904, 41.9989514], [12.4945803, 41.9989408], [12.4945742, 41.9989302], [12.4945724, 41.9989102], [12.494576, 41.9988932], [12.4945836, 41.9988801], [12.4945977, 41.9988624], [12.4946128, 41.9988471], [12.4946268, 41.9988375], [12.4946407, 41.9988294], [12.4946616, 41.9988182], [12.4946918, 41.9988039]], [[12.4964242, 41.9986923], [12.4964051, 41.9987298], [12.4963985, 41.9987466], [12.4963931, 41.9987654], [12.4963895, 41.9987855], [12.4963859, 41.9988096], [12.4963781, 41.9988608], [12.4963695, 41.9988944], [12.4963601, 41.9989156], [12.4963438, 41.998935], [12.4963213, 41.9989544], [12.4962878, 41.9989768], [12.4962524, 41.9989966], [12.4962236, 41.9990099], [12.4961859, 41.9990233], [12.4961336, 41.9990395]], [[12.4857447, 41.9606499], [12.4855098, 41.9595942], [12.4853168, 41.9585134], [12.4852838, 41.957821], [12.4852666, 41.9577294], [12.4852536, 41.9576856], [12.4852298, 41.9576478], [12.4849551, 41.9574117], [12.4849024, 41.9573395], [12.4848817, 41.9572604], [12.4849085, 41.9571515]], [[12.4709575, 41.9237306], [12.4710027, 41.9236188]], [[12.4964595, 41.99833], [12.4964323, 41.9986216]], [[12.4674682, 41.9327443], [12.4675066, 41.93252], [12.4675106, 41.9324827], [12.467513, 41.932444], [12.4675132, 41.9324082], [12.4675122, 41.9323676], [12.4675021, 41.9323013]], [[12.4744666, 41.9474203], [12.474363, 41.9474614], [12.4731664, 41.9475646], [12.4731269, 41.9475766], [12.4731128, 41.9475911]], [[12.4956533, 42.0016555], [12.4956941, 42.0015837]], [[12.474574, 41.9151878], [12.4746086, 41.9151048], [12.4748423, 41.9145387], [12.4748577, 41.914526]], [[12.4748577, 41.914526], [12.4748697, 41.9144972], [12.4748813, 41.9144691]], [[12.4943399, 41.9893274], [12.4943434, 41.9893919]], [[12.487272, 41.9556357], [12.487103, 41.9551611]]]}}]}