{"type": "FeatureCollection", "features": [{"type": "Feature", "properties": {"id": "SS-ROM-0605", "nome": "Belvedere Giovanni Carosio", "quartiere": "Municipio Roma X", "classificazione": "verde", "score": 1, "note": "zona pedonale / living street | Ricolorato da blu a verde in base a 1 segnalazione reale (ultima: 2026-06-28).", "ciclabile": "si", "n_corsie": "1", "senso_unico": "no", "n_testimonianze": "1", "municipio": "X"}, "geometry": {"type": "LineString", "coordinates": [[12.3039551, 41.7187293], [12.3038692, 41.7185975], [12.3045569, 41.7183303], [12.3046403, 41.7184576]]}}, {"type": "Feature", "properties": {"id": "SS-ROM-1238", "nome": "Lungomare Amerigo Vespucci", "quartiere": "Municipio Roma X", "classificazione": "verde", "score": 1, "note": "strada secondaria trafficata (2 corsie) | Ricolorato da rosso a verde in base a 2 segnalazioni reali (ultima: 2026-07-06).", "ciclabile": "si", "n_corsie": "2", "senso_unico": "si", "n_testimonianze": "2", "municipio": "X"}, "geometry": {"type": "MultiLineString", "coordinates": [[[12.3207702, 41.7133784], [12.3205678, 41.7133882], [12.3204393, 41.7133942], [12.3203407, 41.7133998], [12.3202685, 41.713405], [12.3201625, 41.7134142], [12.3201087, 41.7134188], [12.3200612, 41.7134233], [12.3200083, 41.7134287], [12.3199535, 41.7134353], [12.3199347, 41.7134382], [12.3198375, 41.7134525], [12.3196946, 41.7134749], [12.3196559, 41.7134819], [12.3196179, 41.7134893], [12.3195767, 41.7134976], [12.3195361, 41.7135064], [12.3194942, 41.7135163], [12.3194518, 41.7135267], [12.3193923, 41.7135425], [12.3193323, 41.7135589], [12.3192779, 41.7135752], [12.3192235, 41.7135926], [12.319132, 41.7136236], [12.3190126, 41.7136653], [12.3187562, 41.7137749], [12.318688, 41.7138078], [12.3185406, 41.7138778], [12.3184336, 41.7139408], [12.3183474, 41.7139882], [12.3182986, 41.7140253], [12.3182514, 41.7140615], [12.3182054, 41.7140937], [12.318163, 41.7141212], [12.3181175, 41.7141584], [12.3180489, 41.7142069], [12.3179188, 41.7142915]], [[12.3178177, 41.7142278], [12.3181265, 41.7140221], [12.3183684, 41.7138758], [12.3184705, 41.7138215], [12.3185166, 41.7137985], [12.3185627, 41.7137757], [12.3185994, 41.7137587], [12.3186361, 41.7137419], [12.318703, 41.7137127], [12.3193909, 41.7134222], [12.3197085, 41.7132883], [12.3198254, 41.713239], [12.3199943, 41.7131678], [12.320144, 41.7131047], [12.3203206, 41.7130302]], [[12.3457994, 41.7019064], [12.3457098, 41.7019363], [12.3453216, 41.7021118]], [[12.3457994, 41.7019064], [12.3469372, 41.7026733]], [[12.3218691, 41.7124033], [12.3219499, 41.7123762], [12.3220757, 41.7123495], [12.3224029, 41.7122418], [12.3227143, 41.7121376], [12.3228194, 41.7121007], [12.3229034, 41.7120685], [12.32298, 41.712044], [12.323403, 41.7118884], [12.3238453, 41.7117221], [12.3240732, 41.7116333], [12.3241787, 41.7115932], [12.324186, 41.7115904], [12.3243354, 41.7115324], [12.3245851, 41.7114323], [12.3251286, 41.7112196], [12.3255006, 41.7110767], [12.3255962, 41.7110399], [12.3259299, 41.7109007], [12.326003, 41.7108701], [12.3260799, 41.7108398], [12.3264206, 41.7106896], [12.327197, 41.7103438], [12.3272931, 41.7103009], [12.327726, 41.7101055], [12.3280544, 41.7099598], [12.3280781, 41.7099489], [12.3281187, 41.7099299], [12.3288072, 41.7096211], [12.3291581, 41.709465], [12.329606, 41.7092647], [12.3296858, 41.709229], [12.3302754, 41.7089624], [12.330368, 41.7089226], [12.3307124, 41.7087664], [12.3309352, 41.7086624], [12.3314406, 41.7084266], [12.3316594, 41.7083204], [12.3318701, 41.7082136], [12.3322708, 41.708018], [12.3325602, 41.7078751], [12.3328935, 41.7077208], [12.3329772, 41.707678], [12.3330374, 41.7076528], [12.3331119, 41.7076203], [12.3331855, 41.7075882], [12.3336335, 41.7073957], [12.3339787, 41.7072462], [12.3340285, 41.7072243], [12.3344443, 41.7070458], [12.3348834, 41.7068522], [12.3354713, 41.7065962], [12.3361052, 41.7063139], [12.3365393, 41.7061259], [12.3372277, 41.7058136]], [[12.3416855, 41.7037575], [12.341738, 41.703831]], [[12.3428844, 41.7031892], [12.3429428, 41.7032542]], [[12.3440901, 41.7026069], [12.3441486, 41.7026744]], [[12.3361052, 41.7063139], [12.3361565, 41.7063861]], [[12.3339787, 41.7072462], [12.334033, 41.7073118]], [[12.3318701, 41.7082136], [12.3319329, 41.7082817]], [[12.3302754, 41.7089624], [12.3303359, 41.7090323]], [[12.3291581, 41.709465], [12.3292116, 41.7095352]], [[12.3280544, 41.7099598], [12.3281066, 41.710029]], [[12.3380309, 41.705449], [12.3380822, 41.7055224]], [[12.339599, 41.7047311], [12.3396133, 41.7048222]], [[12.326003, 41.7108701], [12.3260568, 41.710941]], [[12.32298, 41.712044], [12.3230287, 41.7121111]], [[12.3330877, 41.7077225], [12.3330374, 41.7076528]], [[12.3453216, 41.7021118], [12.3448876, 41.7023169], [12.3441486, 41.7026744], [12.3429428, 41.7032542], [12.342808, 41.7033212], [12.342261, 41.703584], [12.341738, 41.703831], [12.3405548, 41.7043856], [12.3396133, 41.7048222], [12.3395665, 41.7048432], [12.3388936, 41.7051492], [12.338517, 41.7053243], [12.3380822, 41.7055224], [12.3380122, 41.7055558], [12.3372802, 41.7058808], [12.3365792, 41.7061977], [12.3361915, 41.7063686], [12.3361565, 41.7063861], [12.3349389, 41.7069231], [12.33443, 41.7071417], [12.3340852, 41.707294], [12.334033, 41.7073118], [12.3337271, 41.7074446], [12.3334981, 41.7075465], [12.3332349, 41.7076589], [12.3331529, 41.7076947], [12.3330877, 41.7077225], [12.3330211, 41.707753], [12.3329421, 41.7077879], [12.3326015, 41.7079489], [12.3323237, 41.7080884], [12.3319329, 41.7082817], [12.3317206, 41.7083873], [12.3309725, 41.7087426], [12.3304256, 41.7089924], [12.3303739, 41.7090136], [12.3303359, 41.7090323], [12.3302823, 41.7090543], [12.3297421, 41.7092979], [12.3292116, 41.7095352], [12.328864, 41.7096923], [12.3287866, 41.7097242], [12.3281741, 41.7099996], [12.3281066, 41.710029], [12.3277832, 41.7101752], [12.3272565, 41.7104113], [12.326477, 41.710761], [12.3261295, 41.7109088], [12.3260568, 41.710941], [12.3259884, 41.7109698], [12.3258311, 41.7110295], [12.3256385, 41.7111069], [12.3253188, 41.7112357], [12.3246371, 41.7115053], [12.3245371, 41.7115436], [12.3244593, 41.711575], [12.3242365, 41.7116604], [12.324069, 41.7117257], [12.3234416, 41.7119618], [12.3230287, 41.7121111], [12.3228683, 41.7121683], [12.3227496, 41.7122086], [12.3227094, 41.7122237], [12.322671, 41.7122367], [12.3226383, 41.7122484], [12.3226092, 41.7122624], [12.3225871, 41.7122767], [12.3225682, 41.7122929], [12.3225498, 41.7123135], [12.3225342, 41.7123372], [12.3225236, 41.71236], [12.3225156, 41.7123859], [12.3225115, 41.7124089], [12.322512, 41.7124352], [12.3225156, 41.7124591], [12.3225527, 41.7126124]], [[12.3372277, 41.7058136], [12.3379555, 41.7054849], [12.3380309, 41.705449], [12.3384521, 41.7052606], [12.338839, 41.7050827], [12.3395561, 41.7047546], [12.339599, 41.7047311], [12.3404753, 41.7043248], [12.3404974, 41.7043146], [12.3416855, 41.7037575], [12.342203, 41.7035107], [12.3427461, 41.7032496], [12.3428844, 41.7031892], [12.3440901, 41.7026069], [12.3448331, 41.7022543], [12.3453038, 41.702024], [12.3456101, 41.7018777], [12.3456434, 41.7018713], [12.3456669, 41.7018676], [12.3456891, 41.7018667], [12.3457075, 41.7018681], [12.3457251, 41.7018697], [12.3457381, 41.7018727], [12.3457632, 41.7018848], [12.3457994, 41.7019064]], [[12.3469372, 41.7026733], [12.3470525, 41.7027636]], [[12.3203206, 41.7130302], [12.3203297, 41.7130257], [12.321477, 41.7125493], [12.3215571, 41.712516], [12.3217398, 41.7124519], [12.3218122, 41.7124211], [12.3218691, 41.7124033]], [[12.32298, 41.712044], [12.3229614, 41.7120102], [12.3229458, 41.7119819], [12.3229278, 41.7119492], [12.3229291, 41.7119382], [12.3229425, 41.7119252], [12.3229747, 41.7119112], [12.3231008, 41.7118591]]]}}, {"type": "Feature", "properties": {"id": "SS-ROM-1240", "nome": "Lungomare Duilio", "quartiere": "Municipio Roma X", "classificazione": "verde", "score": 1, "note": "strada secondaria trafficata (2 corsie) | Ricolorato da rosso a verde in base a 1 segnalazione reale (ultima: 2026-07-06).", "ciclabile": "si", "n_corsie": "2", "senso_unico": "si", "n_testimonianze": "1", "municipio": "X"}, "geometry": {"type": "MultiLineString", "coordinates": [[[12.3030486, 41.719294], [12.302988, 41.719317], [12.3028006, 41.7193902]], [[12.2906911, 41.7244772], [12.2915285, 41.7242121], [12.2918399, 41.7240957], [12.2919037, 41.724071], [12.2919448, 41.7240528], [12.2920194, 41.7240195], [12.2922952, 41.7238937], [12.2933548, 41.7234281], [12.2953868, 41.7225003], [12.2954832, 41.7224602], [12.2956056, 41.7224008]], [[12.3018452, 41.7197853], [12.3015106, 41.7199305], [12.3012041, 41.7200527], [12.300628, 41.7202917], [12.3004231, 41.7203721], [12.2991492, 41.7209229], [12.2977175, 41.7215757], [12.2963332, 41.7222131], [12.296252, 41.7222505]], [[12.2956056, 41.7224008], [12.296175, 41.7221571], [12.2962543, 41.7221218], [12.2976702, 41.7214918], [12.2990925, 41.7208488], [12.300572, 41.7202087], [12.3011347, 41.7199805], [12.3014451, 41.719846], [12.3017638, 41.7197126], [12.3026067, 41.719363], [12.3027479, 41.7193103]], [[12.2956241, 41.7225073], [12.2956107, 41.7224773], [12.2956027, 41.7224462], [12.2956025, 41.7224168], [12.2956056, 41.7224008]], [[12.3028006, 41.7193902], [12.3026689, 41.7194467], [12.3018452, 41.7197853]], [[12.3027479, 41.7193103], [12.3029186, 41.7192331], [12.3030166, 41.7191926]], [[12.2956241, 41.7225073], [12.2955474, 41.7225406], [12.2955109, 41.7225565], [12.2945547, 41.7229846], [12.2942207, 41.7231342], [12.2934826, 41.7234773]], [[12.2934826, 41.7234773], [12.2934131, 41.7235096], [12.2927355, 41.7238149], [12.2922219, 41.7240531], [12.2920223, 41.724148], [12.2917934, 41.7242389], [12.2917392, 41.7242569], [12.2916926, 41.7242703]], [[12.2916926, 41.7242703], [12.2916326, 41.7242878], [12.291579, 41.7243064], [12.2915131, 41.7243271], [12.2907977, 41.7245504], [12.2906337, 41.7246035]], [[12.296252, 41.7222505], [12.2956241, 41.7225073]]]}}, {"type": "Feature", "properties": {"id": "SS-ROM-1242", "nome": "Lungomare Paolo Toscanelli", "quartiere": "Municipio Roma X", "classificazione": "verde", "score": 1, "note": "strada secondaria trafficata (2 corsie) | Ricolorato da rosso a verde in base a 1 segnalazione reale (ultima: 2026-07-06).", "ciclabile": "si", "n_corsie": "2", "senso_unico": "si", "n_testimonianze": "1", "municipio": "X"}, "geometry": {"type": "MultiLineString", "coordinates": [[[12.2725502, 41.7310069], [12.2724055, 41.7310542], [12.2717841, 41.731257], [12.2708874, 41.7315466], [12.2705876, 41.7316432], [12.270276, 41.7317441], [12.2702076, 41.7317663], [12.2698355, 41.7318856], [12.2697854, 41.7319017], [12.2686838, 41.7322567], [12.267462, 41.7326504], [12.2673382, 41.7326903]], [[12.2753184, 41.7298995], [12.2753541, 41.729888], [12.2754059, 41.7298714], [12.2753918, 41.7298456], [12.2759543, 41.7296632]], [[12.2746891, 41.7301875], [12.2747443, 41.7302851]], [[12.273806, 41.7305877], [12.2737493, 41.7304851]], [[12.2725502, 41.7310069], [12.272554, 41.7309851], [12.2725607, 41.7309616], [12.27257, 41.7309414], [12.2725861, 41.7309221], [12.2726052, 41.7309056], [12.272631, 41.7308901], [12.2726624, 41.7308744], [12.2728743, 41.7307829], [12.2729223, 41.7307628], [12.2729963, 41.7307333]], [[12.2827162, 41.7276014], [12.2827724, 41.7277069]], [[12.2864045, 41.7265338], [12.2857285, 41.7267575], [12.2854194, 41.7268568], [12.285354, 41.7268778], [12.2838885, 41.7273485], [12.2828796, 41.7276725], [12.2827724, 41.7277069], [12.2811269, 41.7282573], [12.280907, 41.7283256], [12.2808256, 41.7283523], [12.2797447, 41.7286793], [12.2797025, 41.7286929], [12.2796111, 41.7287222], [12.2791898, 41.7288753], [12.2780053, 41.7292495], [12.2778856, 41.729288], [12.2776117, 41.7293756], [12.27747, 41.7294201], [12.2770686, 41.7295444], [12.276998, 41.7295667], [12.2769281, 41.7295904], [12.2768865, 41.7296059]], [[12.2838885, 41.7273485], [12.2838321, 41.727243]], [[12.2811269, 41.7282573], [12.2810684, 41.728153]], [[12.2760776, 41.7298616], [12.2760326, 41.7298734], [12.2759631, 41.7298942], [12.2747443, 41.7302851], [12.2746285, 41.7303225], [12.273806, 41.7305877], [12.2730579, 41.7308374]], [[12.2673382, 41.7326903], [12.2670432, 41.7327771]], [[12.2643126, 41.7336502], [12.2642876, 41.7336798], [12.2642708, 41.7336967], [12.2642563, 41.7337088], [12.2642384, 41.7337201], [12.2642222, 41.7337305], [12.2642022, 41.7337405], [12.2641821, 41.7337469], [12.2641589, 41.733751], [12.264125, 41.7337532], [12.2641059, 41.7337528], [12.2640838, 41.7337505], [12.264032, 41.7337426]], [[12.2670432, 41.7327771], [12.2668917, 41.7328258], [12.2654575, 41.7332869], [12.2644274, 41.7336138], [12.2643126, 41.7336502]], [[12.2767749, 41.7294015], [12.2773359, 41.7292218], [12.2773494, 41.7292466], [12.2773715, 41.7292397], [12.2774296, 41.7292194]], [[12.2768358, 41.7295106], [12.2768793, 41.7294985], [12.2769221, 41.7294858], [12.2769619, 41.7294734], [12.2774169, 41.7293262], [12.2777904, 41.7292055], [12.2779457, 41.7291549], [12.2791619, 41.7287431], [12.2792111, 41.7287273], [12.2795919, 41.728605], [12.2796414, 41.7285891], [12.2808449, 41.7282172], [12.2810684, 41.728153], [12.2827162, 41.7276014], [12.2828138, 41.72757], [12.2838321, 41.727243], [12.2852909, 41.7267744], [12.2853492, 41.7267557], [12.2857159, 41.7266379], [12.2857685, 41.7266172], [12.2858144, 41.7265941], [12.2858585, 41.726562], [12.285883, 41.7265377], [12.2859077, 41.7265106], [12.285923, 41.7264884], [12.2859552, 41.7264357], [12.2860008, 41.7263542], [12.2860464, 41.726279]], [[12.2730579, 41.7308374], [12.2725502, 41.7310069]], [[12.2729963, 41.7307333], [12.2730556, 41.7307111], [12.2731162, 41.73069], [12.2732388, 41.7306486], [12.2737493, 41.7304851], [12.2745703, 41.7302253], [12.2746891, 41.7301875], [12.2749808, 41.7300934], [12.2751042, 41.7300536], [12.2760188, 41.7297636]], [[12.2768865, 41.7296059], [12.2768425, 41.7296257], [12.2767998, 41.7296465], [12.276768, 41.729663], [12.2766689, 41.7297191]], [[12.2762973, 41.7298216], [12.27617, 41.7298426], [12.2761231, 41.7298515], [12.2760776, 41.7298616]], [[12.2760188, 41.7297636], [12.2761488, 41.7297065], [12.2762656, 41.7296685]], [[12.2765251, 41.7295711], [12.2767119, 41.7295398], [12.2767451, 41.7295325], [12.2767908, 41.7295218], [12.2768358, 41.7295106]]]}}, {"type": "Feature", "properties": {"id": "SS-ROM-2022", "nome": "Piazzale Magellano", "quartiere": "Municipio Roma X", "classificazione": "verde", "score": 1, "note": "strada secondaria trafficata (2 corsie) | Ricolorato da rosso a verde in base a 1 segnalazione reale (ultima: 2026-07-06).", "ciclabile": "si", "n_corsie": "2", "senso_unico": "no", "n_testimonianze": "1", "municipio": "X"}, "geometry": {"type": "MultiLineString", "coordinates": [[[12.2906337, 41.7246035], [12.290514, 41.7246417], [12.2894308, 41.7249871]], [[12.2861344, 41.726129], [12.2862273, 41.7260103], [12.2862783, 41.7259603], [12.2863427, 41.7259052], [12.286429, 41.7258534], [12.2869677, 41.7256732], [12.287893, 41.72538], [12.2890762, 41.7250021], [12.2897966, 41.7247687], [12.2904807, 41.7245518], [12.2906911, 41.7244772]], [[12.2864045, 41.7265338], [12.2863404, 41.7265344], [12.2863033, 41.7265304], [12.2862643, 41.7265225], [12.2862142, 41.7265061], [12.286166, 41.7264821], [12.2861333, 41.7264596], [12.2861039, 41.7264326], [12.2860799, 41.7264025], [12.2860622, 41.7263707], [12.2860484, 41.7263254], [12.2860464, 41.726279]], [[12.290917, 41.7251127], [12.2897467, 41.7254934], [12.2895623, 41.7255549], [12.2883032, 41.725956], [12.2871947, 41.7263044], [12.2871217, 41.7263126], [12.2870896, 41.7263173], [12.2870468, 41.7263267], [12.2869832, 41.7263357], [12.2869319, 41.7263429], [12.2868942, 41.72635], [12.2868582, 41.7263609], [12.2868139, 41.7263747], [12.2867207, 41.7263983], [12.286646, 41.7264167]], [[12.290917, 41.7251127], [12.291089, 41.7250622]], [[12.2883032, 41.725956], [12.2882593, 41.7258665], [12.2880805, 41.7255402], [12.2880337, 41.7254402]], [[12.2866832, 41.7262438], [12.2866905, 41.7262935], [12.2866839, 41.7263432], [12.286646, 41.7264167], [12.286601, 41.7264611], [12.2865629, 41.7264865], [12.2865096, 41.7265109], [12.2864491, 41.7265276], [12.2864045, 41.7265338]], [[12.2860464, 41.726279], [12.2860695, 41.7262041], [12.2860972, 41.7261643], [12.2861344, 41.726129]], [[12.2861344, 41.726129], [12.2861729, 41.7261032], [12.2862201, 41.726081], [12.2862608, 41.7260678], [12.28631, 41.726058], [12.2863677, 41.7260541], [12.2864253, 41.7260579], [12.2864781, 41.7260685], [12.2865133, 41.7260799], [12.2865682, 41.7261061], [12.286606, 41.7261323], [12.2866424, 41.7261683], [12.2866653, 41.7262014], [12.2866832, 41.7262438]], [[12.2894308, 41.7249871], [12.2892696, 41.7250406], [12.2891217, 41.7250871], [12.2880337, 41.7254402], [12.2879401, 41.7254713], [12.2871201, 41.7257264], [12.2870609, 41.7257476], [12.2870162, 41.7257657]], [[12.2894308, 41.7249871], [12.2897467, 41.7254934]], [[12.2895623, 41.7255549], [12.2892696, 41.7250406]], [[12.2870162, 41.7257657], [12.2869814, 41.725775], [12.2869427, 41.7257935], [12.286911, 41.7258107], [12.2868784, 41.7258294], [12.2868454, 41.7258551], [12.2868002, 41.7258956], [12.2867808, 41.725919], [12.2867626, 41.7259464], [12.286747, 41.7259756], [12.2867354, 41.7260069], [12.2867243, 41.726045], [12.2867008, 41.7261461], [12.2866832, 41.7262438]]]}}]}